CTC2_L_00426001-01
1 44481U 26621WI  26070.40847222  .00000000  00000+0  00000-0 0  9991
2 44481  70.0000   0.0000 0000000   0.0000   0.0000 12.53473438    11
CTC2_L_00426001-02
1 44482U 23879WP  26070.40847222  .00000000  00000+0  00000-0 0  9994
2 44482  70.0000   0.0000 0000000   0.0000  90.0000 12.53473438    11
CTC2_L_00426001-03
1 44483U 22695MG  26070.40847222  .00000000  00000+0  00000-0 0  9990
2 44483  70.0000   0.0000 0000000   0.0000 180.0000 12.53473438    12
CTC2_L_00426001-04
1 44484U 24612XT  26070.40847222  .00000000  00000+0  00000-0 0  9992
2 44484  70.0000   0.0000 0000000   0.0000 270.0000 12.53473438    13
CTC2_L_00426002-01
1 44485U 23088CC  26070.40847222  .00000000  00000+0  00000-0 0  9999
2 44485  70.0000  12.0000 0000000   0.0000  12.0000 12.53473438    11
CTC2_L_00426002-02
1 44486U 26819CU  26070.40847222  .00000000  00000+0  00000-0 0  9995
2 44486  70.0000  12.0000 0000000   0.0000 102.0000 12.53473438    12
CTC2_L_00426002-03
1 44487U 23085AH  26070.40847222  .00000000  00000+0  00000-0 0  9998
2 44487  70.0000  12.0000 0000000   0.0000 192.0000 12.53473438    12
CTC2_L_00426002-04
1 44488U 26347SM  26070.40847222  .00000000  00000+0  00000-0 0  9993
2 44488  70.0000  12.0000 0000000   0.0000 282.0000 12.53473438    13
CTC2_L_00426003-01
1 44489U 23343BX  26070.40847222  .00000000  00000+0  00000-0 0  9997
2 44489  70.0000  24.0000 0000000   0.0000  24.0000 12.53473438    11
CTC2_L_00426003-02
1 44490U 23979IJ  26070.40847222  .00000000  00000+0  00000-0 0  9994
2 44490  70.0000  24.0000 0000000   0.0000 114.0000 12.53473438    13
CTC2_L_00426003-03
1 44491U 23694IS  26070.40847222  .00000000  00000+0  00000-0 0  9999
2 44491  70.0000  24.0000 0000000   0.0000 204.0000 12.53473438    14
CTC2_L_00426003-04
1 44492U 23878SD  26070.40847222  .00000000  00000+0  00000-0 0  9994
2 44492  70.0000  24.0000 0000000   0.0000 294.0000 12.53473438    14
CTC2_L_00426004-01
1 44493U 25109SY  26070.40847222  .00000000  00000+0  00000-0 0  9994
2 44493  70.0000  36.0000 0000000   0.0000  36.0000 12.53473438    12
CTC2_L_00426004-02
1 44494U 23385HP  26070.40847222  .00000000  00000+0  00000-0 0  9999
2 44494  70.0000  36.0000 0000000   0.0000 126.0000 12.53473438    13
CTC2_L_00426004-03
1 44495U 24234LU  26070.40847222  .00000000  00000+0  00000-0 0  9994
2 44495  70.0000  36.0000 0000000   0.0000 216.0000 12.53473438    14
CTC2_L_00426004-04
1 44496U 25033VU  26070.40847222  .00000000  00000+0  00000-0 0  9993
2 44496  70.0000  36.0000 0000000   0.0000 306.0000 12.53473438    15
CTC2_L_00426005-01
1 44497U 22350XU  26070.40847222  .00000000  00000+0  00000-0 0  9993
2 44497  70.0000  48.0000 0000000   0.0000  48.0000 12.53473438    12
CTC2_L_00426005-02
1 44498U 23558DL  26070.40847222  .00000000  00000+0  00000-0 0  9995
2 44498  70.0000  48.0000 0000000   0.0000 138.0000 12.53473438    13
CTC2_L_00426005-03
1 44499U 25179UU  26070.40847222  .00000000  00000+0  00000-0 0  9997
2 44499  70.0000  48.0000 0000000   0.0000 228.0000 12.53473438    14
CTC2_L_00426005-04
1 44500U 24049AI  26070.40847222  .00000000  00000+0  00000-0 0  9995
2 44500  70.0000  48.0000 0000000   0.0000 318.0000 12.53473438    17
CTC2_L_00426006-01
1 44501U 26878CC  26070.40847222  .00000000  00000+0  00000-0 0  9998
2 44501  70.0000  60.0000 0000000   0.0000  60.0000 12.53473438    16
CTC2_L_00426006-02
1 44502U 23873UW  26070.40847222  .00000000  00000+0  00000-0 0  9991
2 44502  70.0000  60.0000 0000000   0.0000 150.0000 12.53473438    17
CTC2_L_00426006-03
1 44503U 22499II  26070.40847222  .00000000  00000+0  00000-0 0  9995
2 44503  70.0000  60.0000 0000000   0.0000 240.0000 12.53473438    18
CTC2_L_00426006-04
1 44504U 25530UM  26070.40847222  .00000000  00000+0  00000-0 0  9995
2 44504  70.0000  60.0000 0000000   0.0000 330.0000 12.53473438    19
CTC2_L_00426007-01
1 44505U 23439HN  26070.40847222  .00000000  00000+0  00000-0 0  9992
2 44505  70.0000  72.0000 0000000   0.0000  72.0000 12.53473438    16
CTC2_L_00426007-02
1 44506U 22682AP  26070.40847222  .00000000  00000+0  00000-0 0  9992
2 44506  70.0000  72.0000 0000000   0.0000 162.0000 12.53473438    17
CTC2_L_00426007-03
1 44507U 25524HE  26070.40847222  .00000000  00000+0  00000-0 0  9991
2 44507  70.0000  72.0000 0000000   0.0000 252.0000 12.53473438    18
CTC2_L_00426007-04
1 44508U 26675CT  26070.40847222  .00000000  00000+0  00000-0 0  9990
2 44508  70.0000  72.0000 0000000   0.0000 342.0000 12.53473438    19
CTC2_L_00426008-01
1 44509U 26584MJ  26070.40847222  .00000000  00000+0  00000-0 0  9990
2 44509  70.0000  84.0000 0000000   0.0000  84.0000 12.53473438    16
CTC2_L_00426008-02
1 44510U 25965PH  26070.40847222  .00000000  00000+0  00000-0 0  9994
2 44510  70.0000  84.0000 0000000   0.0000 174.0000 12.53473438    18
CTC2_L_00426008-03
1 44511U 24800QP  26070.40847222  .00000000  00000+0  00000-0 0  9992
2 44511  70.0000  84.0000 0000000   0.0000 264.0000 12.53473438    19
CTC2_L_00426008-04
1 44512U 22878JG  26070.40847222  .00000000  00000+0  00000-0 0  9996
2 44512  70.0000  84.0000 0000000   0.0000 354.0000 12.53473438    10
CTC2_L_00426009-01
1 44513U 24859FI  26070.40847222  .00000000  00000+0  00000-0 0  9998
2 44513  70.0000  96.0000 0000000   0.0000  96.0000 12.53473438    17
CTC2_L_00426009-02
1 44514U 23571NB  26070.40847222  .00000000  00000+0  00000-0 0  9999
2 44514  70.0000  96.0000 0000000   0.0000 186.0000 12.53473438    18
CTC2_L_00426009-03
1 44515U 24892PD  26070.40847222  .00000000  00000+0  00000-0 0  9997
2 44515  70.0000  96.0000 0000000   0.0000 276.0000 12.53473438    19
CTC2_L_00426009-04
1 44516U 26845OQ  26070.40847222  .00000000  00000+0  00000-0 0  9998
2 44516  70.0000  96.0000 0000000   0.0000   6.0000 12.53473438    11
CTC2_L_00426010-01
1 44517U 24894TQ  26070.40847222  .00000000  00000+0  00000-0 0  9991
2 44517  70.0000 108.0000 0000000   0.0000 108.0000 12.53473438    19
CTC2_L_00426010-02
1 44518U 22699WU  26070.40847222  .00000000  00000+0  00000-0 0  9993
2 44518  70.0000 108.0000 0000000   0.0000 198.0000 12.53473438    19
CTC2_L_00426010-03
1 44519U 25023JF  26070.40847222  .00000000  00000+0  00000-0 0  9998
2 44519  70.0000 108.0000 0000000   0.0000 288.0000 12.53473438    10
CTC2_L_00426010-04
1 44520U 22434NS  26070.40847222  .00000000  00000+0  00000-0 0  9993
2 44520  70.0000 108.0000 0000000   0.0000  18.0000 12.53473438    13
CTC2_L_00426011-01
1 44521U 25618AB  26070.40847222  .00000000  00000+0  00000-0 0  9991
2 44521  70.0000 120.0000 0000000   0.0000 120.0000 12.53473438    12
CTC2_L_00426011-02
1 44522U 23067IP  26070.40847222  .00000000  00000+0  00000-0 0  9998
2 44522  70.0000 120.0000 0000000   0.0000 210.0000 12.53473438    13
CTC2_L_00426011-03
1 44523U 22033SD  26070.40847222  .00000000  00000+0  00000-0 0  9991
2 44523  70.0000 120.0000 0000000   0.0000 300.0000 12.53473438    14
CTC2_L_00426011-04
1 44524U 24298QH  26070.40847222  .00000000  00000+0  00000-0 0  9997
2 44524  70.0000 120.0000 0000000   0.0000  30.0000 12.53473438    15
CTC2_L_00426012-01
1 44525U 22083PC  26070.40847222  .00000000  00000+0  00000-0 0  9998
2 44525  70.0000 132.0000 0000000   0.0000 132.0000 12.53473438    12
CTC2_L_00426012-02
1 44526U 26584JT  26070.40847222  .00000000  00000+0  00000-0 0  9999
2 44526  70.0000 132.0000 0000000   0.0000 222.0000 12.53473438    13
CTC2_L_00426012-03
1 44527U 23889WA  26070.40847222  .00000000  00000+0  00000-0 0  9995
2 44527  70.0000 132.0000 0000000   0.0000 312.0000 12.53473438    14
CTC2_L_00426012-04
1 44528U 24686JL  26070.40847222  .00000000  00000+0  00000-0 0  9992
2 44528  70.0000 132.0000 0000000   0.0000  42.0000 12.53473438    15
CTC2_L_00426013-01
1 44529U 25529DB  26070.40847222  .00000000  00000+0  00000-0 0  9990
2 44529  70.0000 144.0000 0000000   0.0000 144.0000 12.53473438    12
CTC2_L_00426013-02
1 44530U 22069WU  26070.40847222  .00000000  00000+0  00000-0 0  9998
2 44530  70.0000 144.0000 0000000   0.0000 234.0000 12.53473438    14
CTC2_L_00426013-03
1 44531U 26407RR  26070.40847222  .00000000  00000+0  00000-0 0  9999
2 44531  70.0000 144.0000 0000000   0.0000 324.0000 12.53473438    15
CTC2_L_00426013-04
1 44532U 24572JW  26070.40847222  .00000000  00000+0  00000-0 0  9991
2 44532  70.0000 144.0000 0000000   0.0000  54.0000 12.53473438    16
CTC2_L_00426014-01
1 44533U 25987MG  26070.40847222  .00000000  00000+0  00000-0 0  9993
2 44533  70.0000 156.0000 0000000   0.0000 156.0000 12.53473438    13
CTC2_L_00426014-02
1 44534U 24593OF  26070.40847222  .00000000  00000+0  00000-0 0  9996
2 44534  70.0000 156.0000 0000000   0.0000 246.0000 12.53473438    14
CTC2_L_00426014-03
1 44535U 26212AO  26070.40847222  .00000000  00000+0  00000-0 0  9997
2 44535  70.0000 156.0000 0000000   0.0000 336.0000 12.53473438    15
CTC2_L_00426014-04
1 44536U 24436KL  26070.40847222  .00000000  00000+0  00000-0 0  9994
2 44536  70.0000 156.0000 0000000   0.0000  66.0000 12.53473438    16
CTC2_L_00426015-01
1 44537U 23006PZ  26070.40847222  .00000000  00000+0  00000-0 0  9997
2 44537  70.0000 168.0000 0000000   0.0000 168.0000 12.53473438    13
CTC2_L_00426015-02
1 44538U 25447ZP  26070.40847222  .00000000  00000+0  00000-0 0  9999
2 44538  70.0000 168.0000 0000000   0.0000 258.0000 12.53473438    14
CTC2_L_00426015-03
1 44539U 25430ZV  26070.40847222  .00000000  00000+0  00000-0 0  9992
2 44539  70.0000 168.0000 0000000   0.0000 348.0000 12.53473438    15
CTC2_L_00426015-04
1 44540U 25286J   26070.40847222  .00000000  00000+0  00000-0 0  9993
2 44540  70.0000 168.0000 0000000   0.0000  78.0000 12.53473438    17
CTC2_L_00426016-01
1 44541U 25031GP  26070.40847222  .00000000  00000+0  00000-0 0  9992
2 44541  70.0000 180.0000 0000000   0.0000 180.0000 12.53473438    16
CTC2_L_00426016-02
1 44542U 22908VZ  26070.40847222  .00000000  00000+0  00000-0 0  9993
2 44542  70.0000 180.0000 0000000   0.0000 270.0000 12.53473438    17
